GLOBALSTAR M079 [+]     
1 37188U 10054A   19209.63960693 -.00000082  00000-0  12255-3 0  9999
2 37188  52.0013 206.4171 0000315 195.9454 322.2263 12.62266802405067
GLOBALSTAR M074 [+]     
1 37189U 10054B   19209.95149700 -.00000108  00000-0 -22032-4 0  9998
2 37189  51.9997 205.1231 0000464 198.5843 178.8891 12.62263134405557
GLOBALSTAR M076 [+]     
1 37190U 10054C   19210.56330337 -.00000115  00000-0 -61221-4 0  9998
2 37190  52.0011 203.2315 0000452 232.8012 286.3840 12.62267463405667
GLOBALSTAR M077 [+]     
1 37191U 10054D   19209.88962889 -.00000113  00000-0 -53331-4 0  9996
2 37191  52.0059 161.5266 0000149 328.5323  67.2514 12.62262513405869
GLOBALSTAR M075 [+]     
1 37192U 10054E   19210.65405803 -.00000078  00000-0  14470-3 0  9991
2 37192  51.9928 246.4037 0000479 200.9384 311.0784 12.62271212404918
GLOBALSTAR M073 [+]     
1 37193U 10054F   19209.91210917 -.00000119  00000-0 -84893-4 0  9993
2 37193  52.0047 160.8556 0000259 356.0540  21.7483 12.62266391406286
GLOBALSTAR M083 [+]     
1 37739U 11033A   19210.88839588 -.00000111  00000-0 -39424-4 0  9998
2 37739  51.9865 109.5491 0000678  80.6794 356.3231 12.62265884375786
GLOBALSTAR M088 [+]     
1 37740U 11033B   19209.92926633 -.00000100  00000-0  23430-4 0  9998
2 37740  51.9749  19.7731 0000893 107.7416  49.1254 12.62264312371063
GLOBALSTAR M091 [+]     
1 37741U 11033C   19209.86626913 -.00000107  00000-0 -20460-4 0  9998
2 37741  52.0017 339.6683 0000911 113.5333  56.2593 12.62264745371793
GLOBALSTAR M085 [+]     
1 37742U 11033D   19209.69205124 -.00000096  00000-0  44974-4 0  9999
2 37742  51.9872 293.1406 0000787 128.9117  28.6250 12.62267410372447
GLOBALSTAR M081 [+]     
1 37743U 11033E   19210.74471439 -.00000079  00000-0  13725-3 0  9992
2 37743  51.9961 291.3946 0000847 153.0441 350.9078 12.62264663372774
GLOBALSTAR M089 [+]     
1 37744U 11033F   19210.62769875 -.00000066  00000-0  21265-3 0  9998
2 37744  51.9911 246.3817 0000110 120.2801  32.0668 12.62267931373478
GLOBALSTAR M084 [+]     
1 38040U 11080A   19209.91209167 -.00000118  00000-0 -78179-4 0  9999
2 38040  52.0010 114.7232 0000625  17.5114  59.6329 12.62266113351392
GLOBALSTAR M080 [+]     
1 38041U 11080B   19209.88489837 -.00000118  00000-0 -80842-4 0  9990
2 38041  52.0061 115.6570 0000565   9.2869  64.1465 12.62262766351372
GLOBALSTAR M082 [+]     
1 38042U 11080C   19209.82016135 -.00000104  00000-0 -24263-5 0  9993
2 38042  52.0081  71.0738 0000975  85.1602 354.8563 12.62269851352101
GLOBALSTAR M092 [+]     
1 38043U 11080D   19209.94410726 -.00000119  00000-0 -85537-4 0  9997
2 38043  52.0077 160.9458 0000549  24.6779  18.4231 12.62265685350579
GLOBALSTAR M090 [+]     
1 38044U 11080E   19209.93063647 -.00000102  00000-0  82803-5 0  9998
2 38044  51.9892  67.3165 0000797  78.0626  25.1339 12.62265594352066
GLOBALSTAR M086 [+]     
1 38045U 11080F   19209.79339924 -.00000096  00000-0  40589-4 0  9993
2 38045  51.9903  68.1205 0000597 261.6554 176.4432 12.62263376351993
GLOBALSTAR M097 [+]     
1 39072U 13005A   19209.80237687 -.00000108  00000-0 -23403-4 0  9999
2 39072  52.0066 340.4398 0000790 134.6846 225.4085 12.62262587299323
GLOBALSTAR M093 [+]     
1 39073U 13005B   19210.72627723 -.00000100  00000-0  18681-4 0  9990
2 39073  51.9829 334.3781 0001096 135.8261 224.2694 12.62265003299432
GLOBALSTAR M094 [+]     
1 39074U 13005C   19209.61790012 -.00000077  00000-0  14760-3 0  9995
2 39074  51.9940 249.9874 0000556 170.1662 189.9215 12.62263520300787
GLOBALSTAR M096 [+]     
1 39075U 13005D   19209.78958222 -.00000092  00000-0  64508-4 0  9996
2 39075  52.0080 296.2982 0000808 141.9444 218.1480 12.62265722300071
GLOBALSTAR M078 [+]     
1 39076U 13005E   19209.84328588 -.00000155  00000-0 -28623-3 0  9998
2 39076  51.9891  23.5734 0001768  93.1990 266.9078 12.62278862298569
GLOBALSTAR M095 [+]     
1 39077U 13005F   19209.86833218 -.00000103  00000-0  55292-5 0  9998
2 39077  51.9814  21.7594 0001427 103.5243 256.5783 12.62263845298550
